[{"OBJECT_NAME":"STARLINK-30271","OBJECT_ID":"2023-124G","EPOCH":"2026-03-09T15:32:23.365824","MEAN_MOTION":15.30174088,"ECCENTRICITY":0.0001531,"INCLINATION":53.1609,"RA_OF_ASC_NODE":207.2469,"ARG_OF_PERICENTER":98.7407,"MEAN_ANOMALY":261.3767,"EPHEMERIS_TYPE":0,"CLASSIFICATION_TYPE":"U","NORAD_CAT_ID":57669,"ELEMENT_SET_NO":999,"REV_AT_EPOCH":14355,"BSTAR":0.0001297,"MEAN_MOTION_DOT":3.481e-5,"MEAN_MOTION_DDOT":0},{"OBJECT_NAME":"SCS-01 H","OBJECT_ID":"2025-100H","EPOCH":"2026-03-09T23:19:05.376864","MEAN_MOTION":15.31767757,"ECCENTRICITY":0.00071581,"INCLINATION":97.3749,"RA_OF_ASC_NODE":145.8085,"ARG_OF_PERICENTER":277.8492,"MEAN_ANOMALY":82.1937,"EPHEMERIS_TYPE":0,"CLASSIFICATION_TYPE":"U","NORAD_CAT_ID":63989,"ELEMENT_SET_NO":999,"REV_AT_EPOCH":4566,"BSTAR":0.0011436254,"MEAN_MOTION_DOT":0.00035149,"MEAN_MOTION_DDOT":0}]
